O3B MPOWER F1           
1 54755U 22174A   23265.70656149 -.00000016  00000+0  00000+0 0  9994
2 54755   0.0473  17.0909 0004864 179.2519 194.5014  5.00118445 15406
